OBJECT_NAME,OBJECT_ID,EPOCH,MEAN_MOTION,ECCENTRICITY,INCLINATION,RA_OF_ASC_NODE,ARG_OF_PERICENTER,MEAN_ANOMALY,EPHEMERIS_TYPE,CLASSIFICATION_TYPE,NORAD_CAT_ID,ELEMENT_SET_NO,REV_AT_EPOCH,BSTAR,MEAN_MOTION_DOT,MEAN_MOTION_DDOT
STARLINK-36218,2026-157AB,2026-07-14T22:00:03.000096,16.00572926,.00007308,53.1594,297.1608,58.5211,284.2550,0,U,69968,999,176,-.38778322E-2,-.2088005E-1,.12954416E-2
STARLINK-37921,2026-157AC,2026-07-14T22:00:03.000096,16.01204207,.00007556,53.1594,297.1424,61.8785,289.6412,0,U,69969,999,211,-.37634215E-2,-.2101656E-1,.13215838E-2
STARLINK-37896,2026-157AD,2026-07-14T22:00:03.000096,16.01223102,.00008022,53.1593,297.1394,68.0779,284.8537,0,U,69970,999,211,-.37767155E-2,-.2111305E-1,.13335255E-2
STARLINK-37922,2026-157AE,2026-07-14T22:00:03.000096,16.01230573,.00006819,53.1592,297.1377,64.9200,288.8347,0,U,69971,999,211,-.37755176E-2,-.2111528E-1,.13339142E-2
CHUANG XIN 26 (CX-26),2026-158A,2026-07-13T12:20:46.071168,14.25122238,.0004887,49.9860,287.5119,294.2352,65.8050,0,U,69972,999,46,-.21871415E-4,-.212E-5,0
CZ-10B DEB,2026-158B,2026-07-13T14:02:35.409120,14.24885997,.0005701,49.9846,287.2193,305.8104,54.2279,0,U,69973,999,47,.11013E-3,.99E-6,0
CZ-10B R/B,2026-158C,2026-07-13T13:30:02.623104,14.64293949,.01979448,49.9631,286.3519,194.8878,164.6170,0,U,69974,999,48,.55130296E-4,.143E-5,0
STARLINK-38024,2026-159A,2026-07-14T22:00:03.000096,15.99510505,.00012229,97.2843,34.4936,84.0820,302.1533,0,U,69975,999,181,-.38041442E-2,-.1857104E-1,.10291515E-2
STARLINK-37993,2026-159B,2026-07-14T22:00:03.000096,15.99587210,.00012213,97.2842,34.4937,79.7190,307.0439,0,U,69976,999,181,-.37194202E-2,-.1823965E-1,.99569945E-3
STARLINK-37995,2026-159C,2026-07-14T22:00:03.000096,15.99683221,.00012017,97.2842,34.4940,81.5511,305.7596,0,U,69977,999,181,-.36542573E-2,-.1801961E-1,.97429463E-3
STARLINK-38057,2026-159D,2026-07-14T22:00:03.000096,15.99801103,.0001194,97.2842,34.4941,81.5851,306.3040,0,U,69978,999,181,-.3597425E-2,-.1785934E-1,.95936987E-3
STARLINK-38063,2026-159E,2026-07-14T22:00:03.000096,15.99927255,.00012125,97.2842,34.4945,77.8731,310.6051,0,U,69979,999,181,-.35457254E-2,-.1772991E-1,.94772597E-3
STARLINK-38093,2026-159F,2026-07-14T22:00:03.000096,16.00058436,.00011979,97.2841,34.4946,78.4874,310.5886,0,U,69980,999,181,-.34961338E-2,-.1761328E-1,.93746879E-3
STARLINK-38050,2026-159G,2026-07-14T22:00:03.000096,16.00169397,.00011726,97.2841,34.4948,80.5369,309.1087,0,U,69981,999,181,-.34436315E-2,-.1745976E-1,.92337442E-3
STARLINK-38065,2026-159H,2026-07-14T22:00:03.000096,16.00292668,.00011597,97.2841,34.4952,80.7130,309.5189,0,U,69982,999,181,-.3397128E-2,-.1734599E-1,.91342024E-3
STARLINK-38077,2026-159J,2026-07-14T22:00:03.000096,16.00407946,.0001241,97.2840,34.4953,79.8295,310.9851,0,U,69983,999,181,-.33405054E-2,-.1717106E-1,.89742542E-3
STARLINK-38068,2026-159K,2026-07-14T22:00:03.000096,16.00498001,.00011942,97.2841,34.4955,83.3745,307.9815,0,U,69984,999,181,-.32882509E-2,-.1699118E-1,.88081395E-3
STARLINK-38089,2026-159L,2026-07-14T22:00:03.000096,16.00630218,.00012239,97.2839,34.4958,81.2249,310.7229,0,U,69985,999,181,-.32553104E-2,-.1694854E-1,.87801937E-3
STARLINK-38073,2026-159M,2026-07-14T22:00:03.000096,16.00734299,.00011991,97.2839,34.4959,82.1505,310.3687,0,U,69986,999,181,-.32025291E-2,-.1677491E-1,.86230074E-3
STARLINK-38099,2026-159N,2026-07-14T22:00:03.000096,16.00834262,.00012084,97.2838,34.4961,81.8498,311.2195,0,U,69987,999,181,-.31642166E-2,-.1667029E-1,.85325577E-3
STARLINK-38064,2026-159P,2026-07-14T22:00:03.000096,16.01056267,.00011638,97.2838,34.4965,78.1851,316.0266,0,U,69988,999,181,-.30870403E-2,-.1647365E-1,.83668783E-3
STARLINK-38080,2026-159Q,2026-07-14T22:00:03.000096,16.00949617,.00012462,97.2837,34.4964,78.9191,314.7285,0,U,69989,999,181,-.31283076E-2,-.1659111E-1,.84682444E-3
STARLINK-38070,2026-159R,2026-07-14T22:00:03.000096,16.01173657,.00011521,97.2837,34.4968,78.8044,315.9888,0,U,69990,999,181,-.30493849E-2,-.1638356E-1,.82928725E-3
STARLINK-38042,2026-159S,2026-07-14T22:00:03.000096,16.01250662,.0001213,97.2836,34.4969,82.5764,312.7502,0,U,69991,999,181,-.29999221E-2,-.1619159E-1,.81196174E-3
STARLINK-38071,2026-159T,2026-07-14T22:00:03.000096,16.01343479,.00011554,97.2837,34.4973,77.1820,318.6836,0,U,69992,999,181,-.2967217E-2,-.161016E-1,.80442769E-3
STARLINK-38082,2026-159U,2026-07-14T22:00:03.000096,16.01436971,.00011607,97.2837,34.4973,86.9171,309.4970,0,U,69993,999,181,-.29301097E-2,-.159873E-1,.79466802E-3
STARLINK-38090,2026-159V,2026-07-14T22:00:03.000096,16.01532853,.00012738,97.2836,34.4977,73.7858,323.1862,0,U,69994,999,181,-.28866352E-2,-.158393E-1,.78187983E-3
STARLINK-38084,2026-159W,2026-07-14T22:00:03.000096,16.01652679,.00011654,97.2837,34.4980,76.5607,320.9897,0,U,69995,999,181,-.28629364E-2,-.1581815E-1,.78101878E-3
STARLINK-38085,2026-159X,2026-07-14T22:00:03.000096,16.01733590,.00011425,97.2837,34.4982,80.9224,317.1609,0,U,69996,999,181,-.28254569E-2,-.1568567E-1,.76959623E-3
