STARLINK-36218          
1 69968U 26157AB  26195.91670139 -.02088005  12954-2 -38778-2 0  9991
2 69968  53.1594 297.1608 0000730  58.5211 284.2550 16.00572926  1760
STARLINK-37921          
1 69969U 26157AC  26195.91670139 -.02101656  13216-2 -37634-2 0  9992
2 69969  53.1594 297.1424 0000755  61.8785 289.6412 16.01204207  2118
STARLINK-37896          
1 69970U 26157AD  26195.91670139 -.02111305  13335-2 -37767-2 0  9995
2 69970  53.1593 297.1394 0000802  68.0779 284.8537 16.01223102  2110
STARLINK-37922          
1 69971U 26157AE  26195.91670139 -.02111528  13339-2 -37755-2 0  9994
2 69971  53.1592 297.1377 0000681  64.9200 288.8347 16.01230573  2113
CHUANG XIN 26 (CX-26)   
1 69972U 26158A   26194.51442212 -.00000212  00000+0 -21871-4 0  9997
2 69972  49.9860 287.5119 0004887 294.2352  65.8050 14.25122238   462
CZ-10B DEB              
1 69973U 26158B   26194.58513205  .00000099  00000+0  11013-3 0  9993
2 69973  49.9846 287.2193 0005701 305.8104  54.2279 14.24885997   479
CZ-10B R/B              
1 69974U 26158C   26194.56253036  .00000143  00000+0  55130-4 0  9994
2 69974  49.9631 286.3519 0197944 194.8878 164.6170 14.64293949   480
STARLINK-38024          
1 69975U 26159A   26195.91670139 -.01857104  10292-2 -38041-2 0  9990
2 69975  97.2843  34.4936 0001222  84.0820 302.1533 15.99510505  1816
STARLINK-37993          
1 69976U 26159B   26195.91670139 -.01823965  99570-3 -37194-2 0  9994
2 69976  97.2842  34.4937 0001221  79.7190 307.0439 15.99587210  1813
STARLINK-37995          
1 69977U 26159C   26195.91670139 -.01801961  97429-3 -36543-2 0  9995
2 69977  97.2842  34.4940 0001201  81.5511 305.7596 15.99683221  1812
STARLINK-38057          
1 69978U 26159D   26195.91670139 -.01785934  95937-3 -35974-2 0  9996
2 69978  97.2842  34.4941 0001194  81.5851 306.3040 15.99801103  1814
STARLINK-38063          
1 69979U 26159E   26195.91670139 -.01772991  94773-3 -35457-2 0  9999
2 69979  97.2842  34.4945 0001212  77.8731 310.6051 15.99927255  1812
STARLINK-38093          
1 69980U 26159F   26195.91670139 -.01761328  93747-3 -34961-2 0  9992
2 69980  97.2841  34.4946 0001197  78.4874 310.5886 16.00058436  1815
STARLINK-38050          
1 69981U 26159G   26195.91670139 -.01745976  92337-3 -34436-2 0  9995
2 69981  97.2841  34.4948 0001172  80.5369 309.1087 16.00169397  1810
STARLINK-38065          
1 69982U 26159H   26195.91670139 -.01734599  91342-3 -33971-2 0  9993
2 69982  97.2841  34.4952 0001159  80.7130 309.5189 16.00292668  1814
STARLINK-38077          
1 69983U 26159J   26195.91670139 -.01717106  89743-3 -33405-2 0  9993
2 69983  97.2840  34.4953 0001241  79.8295 310.9851 16.00407946  1817
STARLINK-38068          
1 69984U 26159K   26195.91670139 -.01699118  88081-3 -32883-2 0  9999
2 69984  97.2841  34.4955 0001194  83.3745 307.9815 16.00498001  1816
STARLINK-38089          
1 69985U 26159L   26195.91670139 -.01694854  87802-3 -32553-2 0  9996
2 69985  97.2839  34.4958 0001223  81.2249 310.7229 16.00630218  1815
STARLINK-38073          
1 69986U 26159M   26195.91670139 -.01677491  86230-3 -32025-2 0  9993
2 69986  97.2839  34.4959 0001199  82.1505 310.3687 16.00734299  1812
STARLINK-38099          
1 69987U 26159N   26195.91670139 -.01667029  85326-3 -31642-2 0  9999
2 69987  97.2838  34.4961 0001208  81.8498 311.2195 16.00834262  1818
STARLINK-38064          
1 69988U 26159P   26195.91670139 -.01647365  83669-3 -30870-2 0  9991
2 69988  97.2838  34.4965 0001163  78.1851 316.0266 16.01056267  1819
STARLINK-38080          
1 69989U 26159Q   26195.91670139 -.01659111  84682-3 -31283-2 0  9999
2 69989  97.2837  34.4964 0001246  78.9191 314.7285 16.00949617  1810
STARLINK-38070          
1 69990U 26159R   26195.91670139 -.01638356  82929-3 -30494-2 0  9994
2 69990  97.2837  34.4968 0001152  78.8044 315.9888 16.01173657  1814
STARLINK-38042          
1 69991U 26159S   26195.91670139 -.01619159  81196-3 -29999-2 0  9998
2 69991  97.2836  34.4969 0001213  82.5764 312.7502 16.01250662  1814
STARLINK-38071          
1 69992U 26159T   26195.91670139 -.01610160  80443-3 -29672-2 0  9994
2 69992  97.2837  34.4973 0001155  77.1820 318.6836 16.01343479  1813
STARLINK-38082          
1 69993U 26159U   26195.91670139 -.01598730  79467-3 -29301-2 0  9996
2 69993  97.2837  34.4973 0001160  86.9171 309.4970 16.01436971  1814
STARLINK-38090          
1 69994U 26159V   26195.91670139 -.01583930  78188-3 -28866-2 0  9997
2 69994  97.2836  34.4977 0001273  73.7858 323.1862 16.01532853  1818
STARLINK-38084          
1 69995U 26159W   26195.91670139 -.01581815  78102-3 -28629-2 0  9991
2 69995  97.2837  34.4980 0001165  76.5607 320.9897 16.01652679  1819
STARLINK-38085          
1 69996U 26159X   26195.91670139 -.01568567  76960-3 -28255-2 0  9996
2 69996  97.2837  34.4982 0001142  80.9224 317.1609 16.01733590  1812
